[{"OBJECT_NAME":"STARLINK-1134","OBJECT_ID":"2020-006E","EPOCH":"2026-03-10T00:00:02.999808","MEAN_MOTION":15.43845281,"ECCENTRICITY":0.00082945,"INCLINATION":53.0316,"RA_OF_ASC_NODE":236.8452,"ARG_OF_PERICENTER":176.7165,"MEAN_ANOMALY":97.2944,"EPHEMERIS_TYPE":0,"CLASSIFICATION_TYPE":"U","NORAD_CAT_ID":45048,"ELEMENT_SET_NO":999,"REV_AT_EPOCH":589,"BSTAR":0.0021626452,"MEAN_MOTION_DOT":0.00100606,"MEAN_MOTION_DDOT":0},{"OBJECT_NAME":"BRO-6","OBJECT_ID":"2022-047AE","EPOCH":"2026-03-09T22:39:29.581632","MEAN_MOTION":15.44429794,"ECCENTRICITY":0.00055745,"INCLINATION":97.3417,"RA_OF_ASC_NODE":158.5545,"ARG_OF_PERICENTER":78.0361,"MEAN_ANOMALY":282.1512,"EPHEMERIS_TYPE":0,"CLASSIFICATION_TYPE":"U","NORAD_CAT_ID":52422,"ELEMENT_SET_NO":999,"REV_AT_EPOCH":21580,"BSTAR":0.00044779472,"MEAN_MOTION_DOT":0.00020658,"MEAN_MOTION_DDOT":0}]
